SL-16 R/B               
1 25400U 98043G   25365.46214939  .00000155  00000+0  83673-4 0  9995
2 25400  98.8149 313.3874 0009290 207.1118 152.9577 14.26030729429264
SL-16 R/B               
1 25407U 98045B   25365.62393154  .00000074  00000+0  61372-4 0  9991
2 25407  71.0126 324.7129 0005733 144.9010 215.2492 14.16181565417467
ISS (ZARYA)             
1 25544U 98067A   25365.56511186  .00015372  00000+0  28665-3 0  9991
2 25544  51.6330  49.2494 0007503 324.2875  35.7611 15.48977139545773
CZ-4B R/B               
1 25732U 99025C   25365.66636052  .00000157  00000+0  96439-4 0  9996
2 25732  98.6742  46.5205 0037165 179.0524 292.8226 14.18248803378524
OKEAN-O                 
1 25860U 99039A   25365.58252478  .00001446  00000+0  19714-3 0  9992
2 25860  97.9578  61.1190 0001309 114.5679 245.5670 14.80198977424319
SL-16 R/B               
1 25861U 99039B   25365.62707791  .00001203  00000+0  15956-3 0  9996
2 25861  98.0099  59.7771 0016031 116.2357 244.0505 14.81618373426780
DELTA 2 R/B             
1 25876U 99041E   25365.61920212  .00003180  00000+0  54915-3 0  9993
2 25876  51.7594 213.0782 0504246 147.4103 215.9037 14.11467097353418
HELIOS 1B               
1 25977U 99064A   25365.57345988  .00003518  00000+0  39574-3 0  9995
2 25977  98.1754 260.7979 0000553  35.2433 324.8819 14.87369631675134
TERRA                   
1 25994U 99068A   25365.65850446  .00000918  00000+0  19649-3 0  9999
2 25994  97.9723  56.6462 0003191  56.1501 114.2185 14.60926556385146
SL-16 R/B               
1 26070U 00006B   25365.62165185  .00000334  00000+0  19397-3 0  9997
2 26070  71.0013 240.9573 0018719 283.2000  76.7035 14.15813004338920
TITAN 4B R/B            
1 26474U 00047B   25365.63549534  .00005795  00000+0  36850-3 0  9994
2 26474  67.9889 231.7817 0037682 121.5513 238.9325 15.08933818382646
ENVISAT                 
1 27386U 02009A   25364.37958830  .00000257  00000+0  97010-4 0  9994
2 27386  98.3625 314.6753 0001115  88.2338  83.3691 14.39006569249200
