CCSDS_OMM_VERS = 2.0
CREATION_DATE  = 
ORIGINATOR     = 

OBJECT_NAME    = SL-16 R/B
OBJECT_ID      = 1998-043G
CENTER_NAME    = EARTH
REF_FRAME      = TEME
TIME_SYSTEM    = UTC
MEAN_ELEMENT_THEORY = SGP/SGP4

EPOCH          = 2025-12-31T11:05:29.707296
MEAN_MOTION    = 14.26030729
ECCENTRICITY   = .00092902
INCLINATION    = 98.8149
RA_OF_ASC_NODE = 313.3874
ARG_OF_PERICENTER = 207.1118
MEAN_ANOMALY   = 152.9577

EPHEMERIS_TYPE = 0
CLASSIFICATION_TYPE = U
NORAD_CAT_ID   = 25400
ELEMENT_SET_NO = 999
REV_AT_EPOCH   = 42926
BSTAR          = .83672525E-4
MEAN_MOTION_DOT = .155E-5
MEAN_MOTION_DDOT = 0

CCSDS_OMM_VERS = 2.0
CREATION_DATE  = 
ORIGINATOR     = 

OBJECT_NAME    = SL-16 R/B
OBJECT_ID      = 1998-045B
CENTER_NAME    = EARTH
REF_FRAME      = TEME
TIME_SYSTEM    = UTC
MEAN_ELEMENT_THEORY = SGP/SGP4

EPOCH          = 2025-12-31T14:58:27.685056
MEAN_MOTION    = 14.16181565
ECCENTRICITY   = .00057339
INCLINATION    = 71.0126
RA_OF_ASC_NODE = 324.7129
ARG_OF_PERICENTER = 144.9010
MEAN_ANOMALY   = 215.2492

EPHEMERIS_TYPE = 0
CLASSIFICATION_TYPE = U
NORAD_CAT_ID   = 25407
ELEMENT_SET_NO = 999
REV_AT_EPOCH   = 41746
BSTAR          = .61371531E-4
MEAN_MOTION_DOT = .74E-6
MEAN_MOTION_DDOT = 0

CCSDS_OMM_VERS = 2.0
CREATION_DATE  = 
ORIGINATOR     = 

OBJECT_NAME    = ISS (ZARYA)
OBJECT_ID      = 1998-067A
CENTER_NAME    = EARTH
REF_FRAME      = TEME
TIME_SYSTEM    = UTC
MEAN_ELEMENT_THEORY = SGP/SGP4

EPOCH          = 2025-12-31T13:33:45.664704
MEAN_MOTION    = 15.48977139
ECCENTRICITY   = .00075032
INCLINATION    = 51.6330
RA_OF_ASC_NODE = 49.2494
ARG_OF_PERICENTER = 324.2875
MEAN_ANOMALY   = 35.7611

EPHEMERIS_TYPE = 0
CLASSIFICATION_TYPE = U
NORAD_CAT_ID   = 25544
ELEMENT_SET_NO = 999
REV_AT_EPOCH   = 54577
BSTAR          = .28664639E-3
MEAN_MOTION_DOT = .15372E-3
MEAN_MOTION_DDOT = 0

CCSDS_OMM_VERS = 2.0
CREATION_DATE  = 
ORIGINATOR     = 

OBJECT_NAME    = CZ-4B R/B
OBJECT_ID      = 1999-025C
CENTER_NAME    = EARTH
REF_FRAME      = TEME
TIME_SYSTEM    = UTC
MEAN_ELEMENT_THEORY = SGP/SGP4

EPOCH          = 2025-12-31T15:59:33.548928
MEAN_MOTION    = 14.18248803
ECCENTRICITY   = .00371657
INCLINATION    = 98.6742
RA_OF_ASC_NODE = 46.5205
ARG_OF_PERICENTER = 179.0524
MEAN_ANOMALY   = 292.8226

EPHEMERIS_TYPE = 0
CLASSIFICATION_TYPE = U
NORAD_CAT_ID   = 25732
ELEMENT_SET_NO = 999
REV_AT_EPOCH   = 37852
BSTAR          = .96439295E-4
MEAN_MOTION_DOT = .157E-5
MEAN_MOTION_DDOT = 0

CCSDS_OMM_VERS = 2.0
CREATION_DATE  = 
ORIGINATOR     = 

OBJECT_NAME    = OKEAN-O
OBJECT_ID      = 1999-039A
CENTER_NAME    = EARTH
REF_FRAME      = TEME
TIME_SYSTEM    = UTC
MEAN_ELEMENT_THEORY = SGP/SGP4

EPOCH          = 2025-12-31T13:58:50.140992
MEAN_MOTION    = 14.80198977
ECCENTRICITY   = .00013099
INCLINATION    = 97.9578
RA_OF_ASC_NODE = 61.1190
ARG_OF_PERICENTER = 114.5679
MEAN_ANOMALY   = 245.5670

EPHEMERIS_TYPE = 0
CLASSIFICATION_TYPE = U
NORAD_CAT_ID   = 25860
ELEMENT_SET_NO = 999
REV_AT_EPOCH   = 42431
BSTAR          = .1971404E-3
MEAN_MOTION_DOT = .1446E-4
MEAN_MOTION_DDOT = 0

CCSDS_OMM_VERS = 2.0
CREATION_DATE  = 
ORIGINATOR     = 

OBJECT_NAME    = SL-16 R/B
OBJECT_ID      = 1999-039B
CENTER_NAME    = EARTH
REF_FRAME      = TEME
TIME_SYSTEM    = UTC
MEAN_ELEMENT_THEORY = SGP/SGP4

EPOCH          = 2025-12-31T15:02:59.531424
MEAN_MOTION    = 14.81618373
ECCENTRICITY   = .00160313
INCLINATION    = 98.0099
RA_OF_ASC_NODE = 59.7771
ARG_OF_PERICENTER = 116.2357
MEAN_ANOMALY   = 244.0505

EPHEMERIS_TYPE = 0
CLASSIFICATION_TYPE = U
NORAD_CAT_ID   = 25861
ELEMENT_SET_NO = 999
REV_AT_EPOCH   = 42678
BSTAR          = .15956344E-3
MEAN_MOTION_DOT = .1203E-4
MEAN_MOTION_DDOT = 0

CCSDS_OMM_VERS = 2.0
CREATION_DATE  = 
ORIGINATOR     = 

OBJECT_NAME    = DELTA 2 R/B
OBJECT_ID      = 1999-041E
CENTER_NAME    = EARTH
REF_FRAME      = TEME
TIME_SYSTEM    = UTC
MEAN_ELEMENT_THEORY = SGP/SGP4

EPOCH          = 2025-12-31T14:51:39.063168
MEAN_MOTION    = 14.11467097
ECCENTRICITY   = .05042465
INCLINATION    = 51.7594
RA_OF_ASC_NODE = 213.0782
ARG_OF_PERICENTER = 147.4103
MEAN_ANOMALY   = 215.9037

EPHEMERIS_TYPE = 0
CLASSIFICATION_TYPE = U
NORAD_CAT_ID   = 25876
ELEMENT_SET_NO = 999
REV_AT_EPOCH   = 35341
BSTAR          = .54914718E-3
MEAN_MOTION_DOT = .318E-4
MEAN_MOTION_DDOT = 0

CCSDS_OMM_VERS = 2.0
CREATION_DATE  = 
ORIGINATOR     = 

OBJECT_NAME    = HELIOS 1B
OBJECT_ID      = 1999-064A
CENTER_NAME    = EARTH
REF_FRAME      = TEME
TIME_SYSTEM    = UTC
MEAN_ELEMENT_THEORY = SGP/SGP4

EPOCH          = 2025-12-31T13:45:46.933632
MEAN_MOTION    = 14.87369631
ECCENTRICITY   = .0000553
INCLINATION    = 98.1754
RA_OF_ASC_NODE = 260.7979
ARG_OF_PERICENTER = 35.2433
MEAN_ANOMALY   = 324.8819

EPHEMERIS_TYPE = 0
CLASSIFICATION_TYPE = U
NORAD_CAT_ID   = 25977
ELEMENT_SET_NO = 999
REV_AT_EPOCH   = 67513
BSTAR          = .39573893E-3
MEAN_MOTION_DOT = .3518E-4
MEAN_MOTION_DDOT = 0

CCSDS_OMM_VERS = 2.0
CREATION_DATE  = 
ORIGINATOR     = 

OBJECT_NAME    = TERRA
OBJECT_ID      = 1999-068A
CENTER_NAME    = EARTH
REF_FRAME      = TEME
TIME_SYSTEM    = UTC
MEAN_ELEMENT_THEORY = SGP/SGP4

EPOCH          = 2025-12-31T15:48:14.785344
MEAN_MOTION    = 14.60926556
ECCENTRICITY   = .00031918
INCLINATION    = 97.9723
RA_OF_ASC_NODE = 56.6462
ARG_OF_PERICENTER = 56.1501
MEAN_ANOMALY   = 114.2185

EPHEMERIS_TYPE = 0
CLASSIFICATION_TYPE = U
NORAD_CAT_ID   = 25994
ELEMENT_SET_NO = 999
REV_AT_EPOCH   = 38514
BSTAR          = .19648672E-3
MEAN_MOTION_DOT = .918E-5
MEAN_MOTION_DDOT = 0

CCSDS_OMM_VERS = 2.0
CREATION_DATE  = 
ORIGINATOR     = 

OBJECT_NAME    = SL-16 R/B
OBJECT_ID      = 2000-006B
CENTER_NAME    = EARTH
REF_FRAME      = TEME
TIME_SYSTEM    = UTC
MEAN_ELEMENT_THEORY = SGP/SGP4

EPOCH          = 2025-12-31T14:55:10.719840
MEAN_MOTION    = 14.15813004
ECCENTRICITY   = .00187198
INCLINATION    = 71.0013
RA_OF_ASC_NODE = 240.9573
ARG_OF_PERICENTER = 283.2000
MEAN_ANOMALY   = 76.7035

EPHEMERIS_TYPE = 0
CLASSIFICATION_TYPE = U
NORAD_CAT_ID   = 26070
ELEMENT_SET_NO = 999
REV_AT_EPOCH   = 33892
BSTAR          = .19396563E-3
MEAN_MOTION_DOT = .334E-5
MEAN_MOTION_DDOT = 0

CCSDS_OMM_VERS = 2.0
CREATION_DATE  = 
ORIGINATOR     = 

OBJECT_NAME    = TITAN 4B R/B
OBJECT_ID      = 2000-047B
CENTER_NAME    = EARTH
REF_FRAME      = TEME
TIME_SYSTEM    = UTC
MEAN_ELEMENT_THEORY = SGP/SGP4

EPOCH          = 2025-12-31T15:15:06.797376
MEAN_MOTION    = 15.08933818
ECCENTRICITY   = .00376828
INCLINATION    = 67.9889
RA_OF_ASC_NODE = 231.7817
ARG_OF_PERICENTER = 121.5513
MEAN_ANOMALY   = 238.9325

EPHEMERIS_TYPE = 0
CLASSIFICATION_TYPE = U
NORAD_CAT_ID   = 26474
ELEMENT_SET_NO = 999
REV_AT_EPOCH   = 38264
BSTAR          = .3685041E-3
MEAN_MOTION_DOT = .5795E-4
MEAN_MOTION_DDOT = 0

CCSDS_OMM_VERS = 2.0
CREATION_DATE  = 
ORIGINATOR     = 

OBJECT_NAME    = ENVISAT
OBJECT_ID      = 2002-009A
CENTER_NAME    = EARTH
REF_FRAME      = TEME
TIME_SYSTEM    = UTC
MEAN_ELEMENT_THEORY = SGP/SGP4

EPOCH          = 2025-12-30T09:06:36.429120
MEAN_MOTION    = 14.39006569
ECCENTRICITY   = .00011154
INCLINATION    = 98.3625
RA_OF_ASC_NODE = 314.6753
ARG_OF_PERICENTER = 88.2338
MEAN_ANOMALY   = 83.3691

EPHEMERIS_TYPE = 0
CLASSIFICATION_TYPE = U
NORAD_CAT_ID   = 27386
ELEMENT_SET_NO = 999
REV_AT_EPOCH   = 24920
BSTAR          = .97009711E-4
MEAN_MOTION_DOT = .257E-5
MEAN_MOTION_DDOT = 0

